ONEWEB-0636             
1 56077U 23043AH  26148.81766517 -.00000102  00000+0 -30378-3 0  9997
2 56077  87.8996 263.0567 0002056  96.1326 264.0038 13.15548262153866
ONEWEB-0637             
1 56078U 23043AJ  26148.81132667 -.00000161  00000+0 -46142-3 0  9992
2 56078  87.8993 263.0752 0002235 103.0821 257.0559 13.15547650153889
ONEWEB-0647             
1 56079U 23043AK  26148.88263035 -.00000085  00000+0 -26003-3 0  9993
2 56079  87.8993 263.0736 0001870  95.5086 264.6258 13.15547334153883
ONEWEB-0651             
1 56080U 23043AL  26149.18210411  .00000014  00000+0  27092-5 0  9990
2 56080  87.8992 263.0077 0002156  98.5314 261.6061 13.15547895155127
ONEWEB-0718             
1 56081U 23043AM  26148.87312206 -.00000059  00000+0 -18977-3 0  9992
2 56081  87.8993 263.0497 0001934 116.2927 243.8402 13.15549750153891
ONEWEB-0561             
1 56710U 23068A   26148.87967468 -.00000039  00000+0 -12740-3 0  9994
2 56710  87.9180 278.2920 0001995  87.9089 272.2272 13.20769794146956
ONEWEB-0668             
1 56711U 23068B   26149.20168139  .00000101  00000+0  22944-3 0  9996
2 56711  87.9108 232.5413 0002362 111.0070 249.1314 13.16592414149282
ONEWEB-0676             
1 56712U 23068C   26149.20960203  .00000119  00000+0  27637-3 0  9992
2 56712  87.9106 232.5459 0002236  93.5134 266.6252 13.16595359149204
ONEWEB-0677             
1 56713U 23068D   26148.86789397 -.00000038  00000+0 -12530-3 0  9995
2 56713  87.9180 278.2858 0002310  99.4525 260.6869 13.20772516147257
ONEWEB-0678             
1 56714U 23068E   26148.84142218  .00000136  00000+0  32761-3 0  9994
2 56714  87.9001 263.0462 0001694  92.9205 267.2119 13.15547053146744
ONEWEB-0679             
1 56715U 23068F   26149.16843472  .00000021  00000+0  22403-4 0  9997
2 56715  87.9109 232.5454 0002591 103.4725 256.6694 13.16593609149223
ONEWEB-0680             
1 56716U 23068G   26148.79331929  .00000198  00000+0  44864-3 0  9994
2 56716  87.9264 247.8281 0002466 110.7159 249.4239 13.21825035148531
ONEWEB-0681             
1 56717U 23068H   26148.77396633 -.00000056  00000+0 -16731-3 0  9993
2 56717  87.9259 247.8341 0002655  82.8158 277.3278 13.21825176148529
ONEWEB-0682             
1 56718U 23068J   26148.86519968 -.00000041  00000+0 -14388-3 0  9992
2 56718  87.9001 263.0428 0002332 110.0423 250.0958 13.15547307146916
ONEWEB-0683             
1 56719U 23068K   26148.81291212 -.00000145  00000+0 -41829-3 0  9992
2 56719  87.9004 263.0521 0002043 108.3110 251.8243 13.15547942146872
ONEWEB-0684             
1 56720U 23068L   26148.82082272 -.00000052  00000+0 -17284-3 0  9994
2 56720  87.9000 263.0411 0000560  96.0722 264.0472 13.15547436146702
