[{"OBJECT_NAME":"ONEWEB-0636","OBJECT_ID":"2023-043AH","EPOCH":"2026-05-28T19:37:26.270688","MEAN_MOTION":13.15548262,"ECCENTRICITY":0.0002056,"INCLINATION":87.8996,"RA_OF_ASC_NODE":263.0567,"ARG_OF_PERICENTER":96.1326,"MEAN_ANOMALY":264.0038,"EPHEMERIS_TYPE":0,"CLASSIFICATION_TYPE":"U","NORAD_CAT_ID":56077,"ELEMENT_SET_NO":999,"REV_AT_EPOCH":15386,"BSTAR":-0.00030378,"MEAN_MOTION_DOT":-1.02e-06,"MEAN_MOTION_DDOT":0.0},{"OBJECT_NAME":"ONEWEB-0637","OBJECT_ID":"2023-043AJ","EPOCH":"2026-05-28T19:28:18.624288","MEAN_MOTION":13.1554765,"ECCENTRICITY":0.0002235,"INCLINATION":87.8993,"RA_OF_ASC_NODE":263.0752,"ARG_OF_PERICENTER":103.0821,"MEAN_ANOMALY":257.0559,"EPHEMERIS_TYPE":0,"CLASSIFICATION_TYPE":"U","NORAD_CAT_ID":56078,"ELEMENT_SET_NO":999,"REV_AT_EPOCH":15388,"BSTAR":-0.00046142,"MEAN_MOTION_DOT":-1.61e-06,"MEAN_MOTION_DDOT":0.0},{"OBJECT_NAME":"ONEWEB-0647","OBJECT_ID":"2023-043AK","EPOCH":"2026-05-28T21:10:59.262240","MEAN_MOTION":13.15547334,"ECCENTRICITY":0.000187,"INCLINATION":87.8993,"RA_OF_ASC_NODE":263.0736,"ARG_OF_PERICENTER":95.5086,"MEAN_ANOMALY":264.6258,"EPHEMERIS_TYPE":0,"CLASSIFICATION_TYPE":"U","NORAD_CAT_ID":56079,"ELEMENT_SET_NO":999,"REV_AT_EPOCH":15388,"BSTAR":-0.00026002999999999996,"MEAN_MOTION_DOT":-8.5e-07,"MEAN_MOTION_DDOT":0.0},{"OBJECT_NAME":"ONEWEB-0651","OBJECT_ID":"2023-043AL","EPOCH":"2026-05-29T04:22:13.795104","MEAN_MOTION":13.15547895,"ECCENTRICITY":0.0002156,"INCLINATION":87.8992,"RA_OF_ASC_NODE":263.0077,"ARG_OF_PERICENTER":98.5314,"MEAN_ANOMALY":261.6061,"EPHEMERIS_TYPE":0,"CLASSIFICATION_TYPE":"U","NORAD_CAT_ID":56080,"ELEMENT_SET_NO":999,"REV_AT_EPOCH":15512,"BSTAR":2.7092000000000003e-06,"MEAN_MOTION_DOT":1.4e-07,"MEAN_MOTION_DDOT":0.0},{"OBJECT_NAME":"ONEWEB-0718","OBJECT_ID":"2023-043AM","EPOCH":"2026-05-28T20:57:17.745984","MEAN_MOTION":13.1554975,"ECCENTRICITY":0.0001934,"INCLINATION":87.8993,"RA_OF_ASC_NODE":263.0497,"ARG_OF_PERICENTER":116.2927,"MEAN_ANOMALY":243.8402,"EPHEMERIS_TYPE":0,"CLASSIFICATION_TYPE":"U","NORAD_CAT_ID":56081,"ELEMENT_SET_NO":999,"REV_AT_EPOCH":15389,"BSTAR":-0.00018977,"MEAN_MOTION_DOT":-5.9e-07,"MEAN_MOTION_DDOT":0.0},{"OBJECT_NAME":"ONEWEB-0561","OBJECT_ID":"2023-068A","EPOCH":"2026-05-28T21:06:43.892352","MEAN_MOTION":13.20769794,"ECCENTRICITY":0.0001995,"INCLINATION":87.918,"RA_OF_ASC_NODE":278.292,"ARG_OF_PERICENTER":87.9089,"MEAN_ANOMALY":272.2272,"EPHEMERIS_TYPE":0,"CLASSIFICATION_TYPE":"U","NORAD_CAT_ID":56710,"ELEMENT_SET_NO":999,"REV_AT_EPOCH":14695,"BSTAR":-0.0001274,"MEAN_MOTION_DOT":-3.9e-07,"MEAN_MOTION_DDOT":0.0},{"OBJECT_NAME":"ONEWEB-0668","OBJECT_ID":"2023-068B","EPOCH":"2026-05-29T04:50:25.272096","MEAN_MOTION":13.16592414,"ECCENTRICITY":0.0002362,"INCLINATION":87.9108,"RA_OF_ASC_NODE":232.5413,"ARG_OF_PERICENTER":111.007,"MEAN_ANOMALY":249.1314,"EPHEMERIS_TYPE":0,"CLASSIFICATION_TYPE":"U","NORAD_CAT_ID":56711,"ELEMENT_SET_NO":999,"REV_AT_EPOCH":14928,"BSTAR":0.00022944,"MEAN_MOTION_DOT":1.01e-06,"MEAN_MOTION_DDOT":0.0},{"OBJECT_NAME":"ONEWEB-0676","OBJECT_ID":"2023-068C","EPOCH":"2026-05-29T05:01:49.615392","MEAN_MOTION":13.16595359,"ECCENTRICITY":0.0002236,"INCLINATION":87.9106,"RA_OF_ASC_NODE":232.5459,"ARG_OF_PERICENTER":93.5134,"MEAN_ANOMALY":266.6252,"EPHEMERIS_TYPE":0,"CLASSIFICATION_TYPE":"U","NORAD_CAT_ID":56712,"ELEMENT_SET_NO":999,"REV_AT_EPOCH":14920,"BSTAR":0.00027637,"MEAN_MOTION_DOT":1.19e-06,"MEAN_MOTION_DDOT":0.0},{"OBJECT_NAME":"ONEWEB-0677","OBJECT_ID":"2023-068D","EPOCH":"2026-05-28T20:49:46.039008","MEAN_MOTION":13.20772516,"ECCENTRICITY":0.000231,"INCLINATION":87.918,"RA_OF_ASC_NODE":278.2858,"ARG_OF_PERICENTER":99.4525,"MEAN_ANOMALY":260.6869,"EPHEMERIS_TYPE":0,"CLASSIFICATION_TYPE":"U","NORAD_CAT_ID":56713,"ELEMENT_SET_NO":999,"REV_AT_EPOCH":14725,"BSTAR":-0.0001253,"MEAN_MOTION_DOT":-3.8e-07,"MEAN_MOTION_DDOT":0.0},{"OBJECT_NAME":"ONEWEB-0678","OBJECT_ID":"2023-068E","EPOCH":"2026-05-28T20:11:38.876352","MEAN_MOTION":13.15547053,"ECCENTRICITY":0.0001694,"INCLINATION":87.9001,"RA_OF_ASC_NODE":263.0462,"ARG_OF_PERICENTER":92.9205,"MEAN_ANOMALY":267.2119,"EPHEMERIS_TYPE":0,"CLASSIFICATION_TYPE":"U","NORAD_CAT_ID":56714,"ELEMENT_SET_NO":999,"REV_AT_EPOCH":14674,"BSTAR":0.00032761000000000004,"MEAN_MOTION_DOT":1.36e-06,"MEAN_MOTION_DDOT":0.0},{"OBJECT_NAME":"ONEWEB-0679","OBJECT_ID":"2023-068F","EPOCH":"2026-05-29T04:02:32.759808","MEAN_MOTION":13.16593609,"ECCENTRICITY":0.0002591,"INCLINATION":87.9109,"RA_OF_ASC_NODE":232.5454,"ARG_OF_PERICENTER":103.4725,"MEAN_ANOMALY":256.6694,"EPHEMERIS_TYPE":0,"CLASSIFICATION_TYPE":"U","NORAD_CAT_ID":56715,"ELEMENT_SET_NO":999,"REV_AT_EPOCH":14922,"BSTAR":2.2403000000000002e-05,"MEAN_MOTION_DOT":2.1e-07,"MEAN_MOTION_DDOT":0.0},{"OBJECT_NAME":"ONEWEB-0680","OBJECT_ID":"2023-068G","EPOCH":"2026-05-28T19:02:22.786656","MEAN_MOTION":13.21825035,"ECCENTRICITY":0.0002466,"INCLINATION":87.9264,"RA_OF_ASC_NODE":247.8281,"ARG_OF_PERICENTER":110.7159,"MEAN_ANOMALY":249.4239,"EPHEMERIS_TYPE":0,"CLASSIFICATION_TYPE":"U","NORAD_CAT_ID":56716,"ELEMENT_SET_NO":999,"REV_AT_EPOCH":14853,"BSTAR":0.00044864,"MEAN_MOTION_DOT":1.98e-06,"MEAN_MOTION_DDOT":0.0},{"OBJECT_NAME":"ONEWEB-0681","OBJECT_ID":"2023-068H","EPOCH":"2026-05-28T18:34:30.690912","MEAN_MOTION":13.21825176,"ECCENTRICITY":0.0002655,"INCLINATION":87.9259,"RA_OF_ASC_NODE":247.8341,"ARG_OF_PERICENTER":82.8158,"MEAN_ANOMALY":277.3278,"EPHEMERIS_TYPE":0,"CLASSIFICATION_TYPE":"U","NORAD_CAT_ID":56717,"ELEMENT_SET_NO":999,"REV_AT_EPOCH":14852,"BSTAR":-0.00016731,"MEAN_MOTION_DOT":-5.6e-07,"MEAN_MOTION_DDOT":0.0},{"OBJECT_NAME":"ONEWEB-0682","OBJECT_ID":"2023-068J","EPOCH":"2026-05-28T20:45:53.252352","MEAN_MOTION":13.15547307,"ECCENTRICITY":0.0002332,"INCLINATION":87.9001,"RA_OF_ASC_NODE":263.0428,"ARG_OF_PERICENTER":110.0423,"MEAN_ANOMALY":250.0958,"EPHEMERIS_TYPE":0,"CLASSIFICATION_TYPE":"U","NORAD_CAT_ID":56718,"ELEMENT_SET_NO":999,"REV_AT_EPOCH":14691,"BSTAR":-0.00014388,"MEAN_MOTION_DOT":-4.1e-07,"MEAN_MOTION_DDOT":0.0},{"OBJECT_NAME":"ONEWEB-0683","OBJECT_ID":"2023-068K","EPOCH":"2026-05-28T19:30:35.607168","MEAN_MOTION":13.15547942,"ECCENTRICITY":0.0002043,"INCLINATION":87.9004,"RA_OF_ASC_NODE":263.0521,"ARG_OF_PERICENTER":108.311,"MEAN_ANOMALY":251.8243,"EPHEMERIS_TYPE":0,"CLASSIFICATION_TYPE":"U","NORAD_CAT_ID":56719,"ELEMENT_SET_NO":999,"REV_AT_EPOCH":14687,"BSTAR":-0.00041829,"MEAN_MOTION_DOT":-1.45e-06,"MEAN_MOTION_DDOT":0.0},{"OBJECT_NAME":"ONEWEB-0684","OBJECT_ID":"2023-068L","EPOCH":"2026-05-28T19:41:59.083008","MEAN_MOTION":13.15547436,"ECCENTRICITY":5.6e-05,"INCLINATION":87.9,"RA_OF_ASC_NODE":263.0411,"ARG_OF_PERICENTER":96.0722,"MEAN_ANOMALY":264.0472,"EPHEMERIS_TYPE":0,"CLASSIFICATION_TYPE":"U","NORAD_CAT_ID":56720,"ELEMENT_SET_NO":999,"REV_AT_EPOCH":14670,"BSTAR":-0.00017284,"MEAN_MOTION_DOT":-5.2e-07,"MEAN_MOTION_DDOT":0.0}]